{"type": "FeatureCollection", "features": [ {"type": "Feature", "properties": {"norad_id": 36206, "name": "FENGYUN 1C DEB", "group": "fengyun-1c-debris", "lat": -47.51675907623935, "lon": 176.3225968398047, "alt_km": 848.4288586906323, "timestamp": "2025-12-08T08:59:01.054068+00:00", "meta": {"OBJECT_NAME": "FENGYUN 1C DEB", "OBJECT_ID": "1999-025DUF", "EPOCH": "2025-11-26T07:02:56.668416", "MEAN_MOTION": 14.21517518, "ECCENTRICITY": 0.00312218, "INCLINATION": 98.4807, "RA_OF_ASC_NODE": 354.0922, "ARG_OF_PERICENTER": 66.8272, "MEAN_ANOMALY": 293.619, "EPHEMERIS_TYPE": 0, "CLASSIFICATION_TYPE": "U", "NORAD_CAT_ID": 36206, "ELEMENT_SET_NO": 999, "REV_AT_EPOCH": 64187, "BSTAR": 0.00073137291, "MEAN_MOTION_DOT": 1.568e-05, "MEAN_MOTION_DDOT": 0}, "tle": {"line1": "1 36206U 99025DUF 25330.29371144  .00001568  00000+0  73137-3 0  9999", "line2": "2 36206  98.4807 354.0922 0031221  66.8272 293.6190 14.21517518641871"}}, "geometry": {"type": "Point", "coordinates": [176.3225968398047, -47.51675907623935]}}, {"type": "Feature", "properties": {"norad_id": 36211, "name": "FENGYUN 1C DEB", "group": "fengyun-1c-debris", "lat": -57.43547822522094, "lon": -10.794603135503761, "alt_km": 712.5544807502429, "timestamp": "2025-12-08T08:59:01.054078+00:00", "meta": {"OBJECT_NAME": "FENGYUN 1C DEB", "OBJECT_ID": "1999-025DUL", "EPOCH": "2025-12-05T17:15:46.002816", "MEAN_MOTION": 14.25954721, "ECCENTRICITY": 0.02662967, "INCLINATION": 98.503, "RA_OF_ASC_NODE": 333.0786, "ARG_OF_PERICENTER": 249.5072, "MEAN_ANOMALY": 107.7342, "EPHEMERIS_TYPE": 0, "CLASSIFICATION_TYPE": "U", "NORAD_CAT_ID": 36211, "ELEMENT_SET_NO": 999, "REV_AT_EPOCH": 94269, "BSTAR": 0.0010127648, "MEAN_MOTION_DOT": 3.457e-05, "MEAN_MOTION_DDOT": 0}, "tle": {"line1": "1 36211U 99025DUL 25339.71928244  .00003457  00000+0  10128-2 0  9999", "line2": "2 36211  98.5030 333.0786 0266296 249.5072 107.7342 14.25954721942694"}}, "geometry": {"type": "Point", "coordinates": [-10.794603135503761, -57.43547822522094]}}, {"type": "Feature", "properties": {"norad_id": 36216, "name": "FENGYUN 1C DEB", "group": "fengyun-1c-debris", "lat": 60.84822820860806, "lon": -13.046261790041376, "alt_km": 795.575591217993, "timestamp": "2025-12-08T08:59:01.054088+00:00", "meta": {"OBJECT_NAME": "FENGYUN 1C DEB", "OBJECT_ID": "1999-025DUR", "EPOCH": "2025-12-07T19:09:18.198720", "MEAN_MOTION": 14.18845569, "ECCENTRICITY": 0.00450882, "INCLINATION": 98.6049, "RA_OF_ASC_NODE": 2.1463, "ARG_OF_PERICENTER": 32.1933, "MEAN_ANOMALY": 328.1982, "EPHEMERIS_TYPE": 0, "CLASSIFICATION_TYPE": "U", "NORAD_CAT_ID": 36216, "ELEMENT_SET_NO": 999, "REV_AT_EPOCH": 64302, "BSTAR": 0.00056064475, "MEAN_MOTION_DOT": 1.136e-05, "MEAN_MOTION_DDOT": 0}, "tle": {"line1": "1 36216U 99025DUR 25341.79812730  .00001136  00000+0  56064-3 0  9999", "line2": "2 36216  98.6049   2.1463 0045088  32.1933 328.1982 14.18845569643027"}}, "geometry": {"type": "Point", "coordinates": [-13.046261790041376, 60.84822820860806]}}, {"type": "Feature", "properties": {"norad_id": 36218, "name": "FENGYUN 1C DEB", "group": "fengyun-1c-debris", "lat": -45.4168658769575, "lon": -6.450905330586399, "alt_km": 658.3639306176747, "timestamp": "2025-12-08T08:59:01.054099+00:00", "meta": {"OBJECT_NAME": "FENGYUN 1C DEB", "OBJECT_ID": "1999-025DUT", "EPOCH": "2025-12-06T11:52:17.104224", "MEAN_MOTION": 14.70854287, "ECCENTRICITY": 0.00732367, "INCLINATION": 99.0761, "RA_OF_ASC_NODE": 180.7916, "ARG_OF_PERICENTER": 315.0069, "MEAN_ANOMALY": 44.5215, "EPHEMERIS_TYPE": 0, "CLASSIFICATION_TYPE": "U", "NORAD_CAT_ID": 36218, "ELEMENT_SET_NO": 999, "REV_AT_EPOCH": 59051, "BSTAR": 0.0020337657, "MEAN_MOTION_DOT": 0.00012922, "MEAN_MOTION_DDOT": 0}, "tle": {"line1": "1 36218U 99025DUT 25340.49464241  .00012922  00000+0  20338-2 0  9996", "line2": "2 36218  99.0761 180.7916 0073236 315.0069  44.5215 14.70854287590518"}}, "geometry": {"type": "Point", "coordinates": [-6.450905330586399, -45.4168658769575]}}, {"type": "Feature", "properties": {"norad_id": 36224, "name": "FENGYUN 1C DEB", "group": "fengyun-1c-debris", "lat": 33.494089472714656, "lon": 23.925450620431906, "alt_km": 775.34969394564, "timestamp": "2025-12-08T08:59:01.054109+00:00", "meta": {"OBJECT_NAME": "FENGYUN 1C DEB", "OBJECT_ID": "1999-025DUZ", "EPOCH": "2025-12-06T21:07:57.437760", "MEAN_MOTION": 14.12758364, "ECCENTRICITY": 0.01148834, "INCLINATION": 98.7809, "RA_OF_ASC_NODE": 28.3313, "ARG_OF_PERICENTER": 8.675, "MEAN_ANOMALY": 351.6373, "EPHEMERIS_TYPE": 0, "CLASSIFICATION_TYPE": "U", "NORAD_CAT_ID": 36224, "ELEMENT_SET_NO": 999, "REV_AT_EPOCH": 64349, "BSTAR": 0.0001903349, "MEAN_MOTION_DOT": 3.33e-06, "MEAN_MOTION_DDOT": 0}, "tle": {"line1": "1 36224U 99025DUZ 25340.88052590  .00000333  00000+0  19033-3 0  9990", "line2": "2 36224  98.7809  28.3313 0114883   8.6750 351.6373 14.12758364643496"}}, "geometry": {"type": "Point", "coordinates": [23.925450620431906, 33.494089472714656]}}, {"type": "Feature", "properties": {"norad_id": 36225, "name": "FENGYUN 1C DEB", "group": "fengyun-1c-debris", "lat": 45.332817361649134, "lon": -67.81017927203548, "alt_km": 575.8046781327421, "timestamp": "2025-12-08T08:59:01.054119+00:00", "meta": {"OBJECT_NAME": "FENGYUN 1C DEB", "OBJECT_ID": "1999-025DVA", "EPOCH": "2025-12-07T13:14:54.124512", "MEAN_MOTION": 15.05526602, "ECCENTRICITY": 0.00440172, "INCLINATION": 98.8189, "RA_OF_ASC_NODE": 102.2141, "ARG_OF_PERICENTER": 308.0486, "MEAN_ANOMALY": 51.6769, "EPHEMERIS_TYPE": 0, "CLASSIFICATION_TYPE": "U", "NORAD_CAT_ID": 36225, "ELEMENT_SET_NO": 999, "REV_AT_EPOCH": 66694, "BSTAR": 0.0042670793, "MEAN_MOTION_DOT": 0.00063183, "MEAN_MOTION_DDOT": 0}, "tle": {"line1": "1 36225U 99025DVA 25341.55201533  .00063183  00000+0  42671-2 0  9994", "line2": "2 36225  98.8189 102.2141 0044017 308.0486  51.6769 15.05526602666946"}}, "geometry": {"type": "Point", "coordinates": [-67.81017927203548, 45.332817361649134]}}, {"type": "Feature", "properties": {"norad_id": 36226, "name": "FENGYUN 1C DEB", "group": "fengyun-1c-debris", "lat": -45.118430241032414, "lon": -163.6824950978363, "alt_km": 932.857787982106, "timestamp": "2025-12-08T08:59:01.054129+00:00", "meta": {"OBJECT_NAME": "FENGYUN 1C DEB", "OBJECT_ID": "1999-025DVB", "EPOCH": "2025-12-05T08:24:08.459424", "MEAN_MOTION": 14.10238341, "ECCENTRICITY": 0.00958599, "INCLINATION": 98.6088, "RA_OF_ASC_NODE": 22.1717, "ARG_OF_PERICENTER": 41.8631, "MEAN_ANOMALY": 318.982, "EPHEMERIS_TYPE": 0, "CLASSIFICATION_TYPE": "U", "NORAD_CAT_ID": 36226, "ELEMENT_SET_NO": 999, "REV_AT_EPOCH": 63658, "BSTAR": 0.0024391454, "MEAN_MOTION_DOT": 4.471e-05, "MEAN_MOTION_DDOT": 0}, "tle": {"line1": "1 36226U 99025DVB 25339.35009791  .00004471  00000+0  24391-2 0  9996", "line2": "2 36226  98.6088  22.1717 0095859  41.8631 318.9820 14.10238341636585"}}, "geometry": {"type": "Point", "coordinates": [-163.6824950978363, -45.118430241032414]}}, {"type": "Feature", "properties": {"norad_id": 36229, "name": "FENGYUN 1C DEB", "group": "fengyun-1c-debris", "lat": 38.59035284647258, "lon": -167.6234372486525, "alt_km": 871.3038752415096, "timestamp": "2025-12-08T08:59:01.054139+00:00", "meta": {"OBJECT_NAME": "FENGYUN 1C DEB", "OBJECT_ID": "1999-025DVE", "EPOCH": "2025-12-07T20:51:00.244512", "MEAN_MOTION": 14.07154025, "ECCENTRICITY": 0.0102508, "INCLINATION": 100.9237, "RA_OF_ASC_NODE": 200.6322, "ARG_OF_PERICENTER": 135.4586, "MEAN_ANOMALY": 225.4872, "EPHEMERIS_TYPE": 0, "CLASSIFICATION_TYPE": "U", "NORAD_CAT_ID": 36229, "ELEMENT_SET_NO": 999, "REV_AT_EPOCH": 63187, "BSTAR": 0.0023471767, "MEAN_MOTION_DOT": 4.065e-05, "MEAN_MOTION_DDOT": 0}, "tle": {"line1": "1 36229U 99025DVE 25341.86875283  .00004065  00000+0  23472-2 0  9993", "line2": "2 36229 100.9237 200.6322 0102508 135.4586 225.4872 14.07154025631873"}}, "geometry": {"type": "Point", "coordinates": [-167.6234372486525, 38.59035284647258]}}, {"type": "Feature", "properties": {"norad_id": 36230, "name": "FENGYUN 1C DEB", "group": "fengyun-1c-debris", "lat": 42.20015964029265, "lon": 48.73502813863716, "alt_km": 1029.883519555433, "timestamp": "2025-12-08T08:59:01.054149+00:00", "meta": {"OBJECT_NAME": "FENGYUN 1C DEB", "OBJECT_ID": "1999-025DVF", "EPOCH": "2025-12-07T11:48:59.173920", "MEAN_MOTION": 13.75238699, "ECCENTRICITY": 0.02177862, "INCLINATION": 99.5238, "RA_OF_ASC_NODE": 56.6096, "ARG_OF_PERICENTER": 155.6506, "MEAN_ANOMALY": 205.512, "EPHEMERIS_TYPE": 0, "CLASSIFICATION_TYPE": "U", "NORAD_CAT_ID": 36230, "ELEMENT_SET_NO": 999, "REV_AT_EPOCH": 61814, "BSTAR": 0.0031022093, "MEAN_MOTION_DOT": 3.491e-05, "MEAN_MOTION_DDOT": 0}, "tle": {"line1": "1 36230U 99025DVF 25341.49235155  .00003491  00000+0  31022-2 0  9994", "line2": "2 36230  99.5238  56.6096 0217786 155.6506 205.5120 13.75238699618141"}}, "geometry": {"type": "Point", "coordinates": [48.73502813863716, 42.20015964029265]}}, {"type": "Feature", "properties": {"norad_id": 36231, "name": "FENGYUN 1C DEB", "group": "fengyun-1c-debris", "lat": 81.18218077788443, "lon": -122.83139848656245, "alt_km": 854.3388794963666, "timestamp": "2025-12-08T08:59:01.054159+00:00", "meta": {"OBJECT_NAME": "FENGYUN 1C DEB", "OBJECT_ID": "1999-025DVG", "EPOCH": "2025-12-05T15:56:36.863520", "MEAN_MOTION": 14.12000961, "ECCENTRICITY": 0.0060915, "INCLINATION": 98.6876, "RA_OF_ASC_NODE": 314.8164, "ARG_OF_PERICENTER": 353.731, "MEAN_ANOMALY": 6.3094, "EPHEMERIS_TYPE": 0, "CLASSIFICATION_TYPE": "U", "NORAD_CAT_ID": 36231, "ELEMENT_SET_NO": 999, "REV_AT_EPOCH": 85443, "BSTAR": 0.00026309485, "MEAN_MOTION_DOT": 4.47e-06, "MEAN_MOTION_DDOT": 0}, "tle": {"line1": "1 36231U 99025DVG 25339.66431555  .00000447  00000+0  26309-3 0  9994", "line2": "2 36231  98.6876 314.8164 0060915 353.7310   6.3094 14.12000961854431"}}, "geometry": {"type": "Point", "coordinates": [-122.83139848656245, 81.18218077788443]}}]}